NORAD_CAT_ID,OBJECT_NAME,OBJECT_TYPE,EPOCH,MEAN_MOTION,ECCENTRICITY,INCLINATION,RA_OF_ASC_NODE,ARG_OF_PERICENTER,MEAN_ANOMALY,BSTAR,MEAN_MOTION_DOT,MEAN_MOTION_DDOT,TLE_LINE0,TLE_LINE1,TLE_LINE2,SEMIMAJOR_AXIS,PERIOD,APOGEE,PERIGEE,DECAYED
52879.0,STARLINK-4139,PAYLOAD,2023-10-29 08:03:20,15.08848551,0.0001652,53.2161,285.3791,88.7239,271.3942,0.00028118,4.191e-05,0.0,0 STARLINK-4139,1 52879U 22062BB  23302.33565243  .00004191  00000-0  28118-3 0  9992,2 52879  53.2161 285.3791 0001652  88.7239 271.3942 15.08848551 75888,6917.854,95.437,540.862,538.576,0.0
52879.0,STARLINK-4139,PAYLOAD,2023-10-29 22:21:49,15.0884175,0.0002288,53.2173,282.7039,83.2275,276.8977,0.00030212,4.524e-05,0.0,0 STARLINK-4139,1 52879U 22062BB  23302.93181888  .00004524  00000-0  30212-3 0  9995,2 52879  53.2173 282.7039 0002288  83.2275 276.8977 15.08841750 75975,6917.875,95.437,541.323,538.157,0.0
52879.0,STARLINK-4139,PAYLOAD,2023-10-30 04:43:21,15.08840686,0.000186,53.2168,281.5136,83.2127,276.9077,0.00021028,3.06e-05,0.0,0 STARLINK-4139,1 52879U 22062BB  23303.19677900  .00003060  00000-0  21028-3 0  9998,2 52879  53.2168 281.5136 0001860  83.2127 276.9077 15.08840686 76504,6917.878,95.438,541.03,538.457,0.0
52879.0,STARLINK-4139,PAYLOAD,2023-10-30 22:12:36,15.08835837,0.000175,53.2163,278.2414,89.6787,270.4406,0.0001078,1.428e-05,0.0,0 STARLINK-4139,1 52879U 22062BB  23303.92542118  .00001428  00000-0  10780-3 0  9990,2 52879  53.2163 278.2414 0001750  89.6787 270.4406 15.08835837 76126,6917.893,95.438,540.969,538.547,0.0
52879.0,STARLINK-4139,PAYLOAD,2023-10-31 06:09:31,15.08847542,0.0001698,53.2165,276.7535,96.0251,264.0934,0.0003482,5.259e-05,0.0,0 STARLINK-4139,1 52879U 22062BB  23304.25661814  .00005259  00000-0  34820-3 0  9999,2 52879  53.2165 276.7535 0001698  96.0251 264.0934 15.08847542 76664,6917.857,95.437,540.897,538.548,0.0
52879.0,STARLINK-4139,PAYLOAD,2023-10-31 15:41:51,15.08837965,0.000176,53.2175,274.9699,90.7004,269.419,0.00022628,3.315e-05,0.0,0 STARLINK-4139,1 52879U 22062BB  23304.65406322  .00003315  00000-0  22628-3 0  9998,2 52879  53.2175 274.9699 0001760  90.7004 269.4190 15.08837965 76721,6917.887,95.438,540.969,538.534,0.0
52879.0,STARLINK-4139,PAYLOAD,2023-10-31 22:03:23,15.0884021,0.0001793,53.2173,273.7818,84.3188,275.8008,0.0002511,3.71e-05,0.0,0 STARLINK-4139,1 52879U 22062BB  23304.91902379  .00003710  00000-0  25110-3 0  9998,2 52879  53.2173 273.7818 0001793  84.3188 275.8008 15.08840210 76273,6917.88,95.438,540.985,538.504,0.0
52879.0,STARLINK-4139,PAYLOAD,2023-11-01 04:24:55,15.08846783,0.0001504,53.2164,272.5914,95.1314,264.985,0.00036061,5.457e-05,0.0,0 STARLINK-4139,1 52879U 22062BB  23305.18398088  .00005457  00000-0  36061-3 0  9991,2 52879  53.2164 272.5914 0001504  95.1314 264.9850 15.08846783 76318,6917.86,95.437,540.765,538.684,0.0
52879.0,STARLINK-4139,PAYLOAD,2023-11-01 21:54:10,15.08842863,0.0001457,53.2162,269.3194,100.5731,259.5426,0.0002113,3.077e-05,0.0,0 STARLINK-4139,1 52879U 22062BB  23305.91262187  .00003077  00000-0  21130-3 0  9999,2 52879  53.2162 269.3194 0001457 100.5731 259.5426 15.08842863 76427,6917.872,95.437,540.745,538.729,0.0
52879.0,STARLINK-4139,PAYLOAD,2023-11-02 04:15:42,15.08849457,0.000161,53.2165,268.1314,89.8677,270.2499,0.00027608,4.11e-05,0.0,0 STARLINK-4139,1 52879U 22062BB  23306.17757979  .00004110  00000-0  27608-3 0  9991,2 52879  53.2165 268.1314 0001610  89.8677 270.2499 15.08849457 76954,6917.851,95.437,540.83,538.603,0.0
52879.0,STARLINK-4139,PAYLOAD,2023-11-02 21:44:57,15.0884216,0.0001627,53.2169,264.8604,90.1275,269.9903,0.00010395,1.367e-05,0.0,0 STARLINK-4139,1 52879U 22062BB  23306.90622135  .00001367  00000-0  10395-3 0  9993,2 52879  53.2169 264.8604 0001627  90.1275 269.9903 15.08842160 76577,6917.874,95.437,540.864,538.613,0.0
52879.0,STARLINK-4139,PAYLOAD,2023-11-03 04:06:29,15.08849994,0.0001544,53.2163,263.6666,95.3083,264.8086,0.00011056,1.472e-05,0.0,0 STARLINK-4139,1 52879U 22062BB  23307.17117671  .00001472  00000-0  11056-3 0  9999,2 52879  53.2163 263.6666 0001544  95.3083 264.8086 15.08849994 77106,6917.85,95.437,540.783,538.647,0.0
52879.0,STARLINK-4139,PAYLOAD,2023-11-03 13:38:48,15.08842843,0.0001452,53.2162,261.886,97.3009,262.8149,7.313e-05,8.76e-06,0.0,0 STARLINK-4139,1 52879U 22062BB  23307.56861924  .00000876  00000-0  73130-4 0  9998,2 52879  53.2162 261.8860 0001452  97.3009 262.8149 15.08842843 76674,6917.872,95.437,540.741,538.732,0.0
52879.0,STARLINK-4139,PAYLOAD,2023-11-03 21:35:44,15.08833058,0.0001575,53.2178,260.403,93.4617,266.6555,1.1795e-05,-1e-06,0.0,0 STARLINK-4139,1 52879U 22062BB  23307.89982519 -.00000100  00000-0  11795-4 0  9998,2 52879  53.2178 260.4030 0001575  93.4617 266.6555 15.08833058 76720,6917.902,95.438,540.856,538.677,0.0
52879.0,STARLINK-4139,PAYLOAD,2023-11-04 03:57:17,15.08839676,0.0001471,53.2192,259.2156,92.7906,267.3255,5.7073e-05,6.2e-06,0.0,0 STARLINK-4139,1 52879U 22062BB  23308.16478399  .00000620  00000-0  57073-4 0  9990,2 52879  53.2192 259.2156 0001471  92.7906 267.3255 15.08839676 77255,6917.881,95.438,540.764,538.729,0.0
52879.0,STARLINK-4139,PAYLOAD,2023-11-04 13:29:36,15.08839399,0.0001535,53.2184,257.4308,96.793,263.3237,-3.51e-05,-8.47e-06,0.0,0 STARLINK-4139,1 52879U 22062BB  23308.56222597 -.00000847  00000-0 -35100-4 0  9991,2 52879  53.2184 257.4308 0001535  96.7930 263.3237 15.08839399 76827,6917.882,95.438,540.809,538.685,0.0
52879.0,STARLINK-4139,PAYLOAD,2023-11-05 13:20:22,15.08850175,0.0001677,53.2176,252.9683,111.0778,249.0393,0.00022073,3.228e-05,0.0,0 STARLINK-4139,1 52879U 22062BB  23309.55581629  .00003228  00000-0  22073-3 0  9993,2 52879  53.2176 252.9683 0001677 111.0778 249.0393 15.08850175 76977,6917.849,95.437,540.874,538.554,0.0
52879.0,STARLINK-4139,PAYLOAD,2023-11-06 03:38:48,15.08894938,0.0001448,53.216,250.291,112.834,247.2805,0.0009833,0.00015419,0.0,0 STARLINK-4139,1 52879U 22062BB  23310.15195448  .00015419  00000-0  98330-3 0  9995,2 52879  53.2160 250.2910 0001448 112.8340 247.2805 15.08894938 77552,6917.712,95.434,540.579,538.576,0.0
52879.0,STARLINK-4139,PAYLOAD,2023-11-06 13:11:07,15.08876647,0.0002214,53.2164,248.5063,86.32,273.8045,0.00046698,7.159e-05,0.0,0 STARLINK-4139,1 52879U 22062BB  23310.54939501  .00007159  00000-0  46698-3 0  9996,2 52879  53.2164 248.5063 0002214  86.3200 273.8045 15.08876647 77128,6917.768,95.435,541.165,538.102,0.0
52879.0,STARLINK-4139,PAYLOAD,2023-11-07 03:29:37,15.08793199,0.0001435,53.216,245.8287,93.2905,266.8251,-0.001673,-0.00026781,0.0,0 STARLINK-4139,1 52879U 22062BB  23311.14557354 -.00026781  00000-0 -16730-2 0  9992,2 52879  53.2160 245.8287 0001435  93.2905 266.8251 15.08793199 77700,6918.023,95.441,540.881,538.896,0.0
52879.0,STARLINK-4139,PAYLOAD,2023-11-07 13:01:57,15.08791149,0.0001432,53.216,244.044,97.4348,262.6807,-0.00090554,-0.00014651,0.0,0 STARLINK-4139,1 52879U 22062BB  23311.54302595 -.00014651  00000-0 -90554-3 0  9991,2 52879  53.2160 244.0440 0001432  97.4348 262.6807 15.08791149 77272,6918.03,95.441,540.885,538.904,0.0
52879.0,STARLINK-4139,PAYLOAD,2023-11-08 01:45:03,15.08801589,0.0001266,53.2166,241.6658,100.0485,260.065,0.00038733,5.875e-05,0.0,0 STARLINK-4139,1 52879U 22062BB  23312.07296131  .00005875  00000-0  38733-3 0  9995,2 52879  53.2166 241.6658 0001266 100.0485 260.0650 15.08801589 77841,6917.998,95.44,540.739,538.987,0.0
52879.0,STARLINK-4139,PAYLOAD,2023-11-08 04:55:50,15.08812057,0.0001472,53.2161,241.0697,103.3895,256.7261,0.00087009,0.00013576,0.0,0 STARLINK-4139,1 52879U 22062BB  23312.20544324  .00013576  00000-0  87009-3 0  9997,2 52879  53.2161 241.0697 0001472 103.3895 256.7261 15.08812057 77867,6917.966,95.439,540.849,538.812,0.0
52879.0,STARLINK-4139,PAYLOAD,2023-11-08 22:25:04,15.0884816,0.000119,53.2161,237.8053,65.6628,294.4488,0.0010616,0.00016651,0.0,0 STARLINK-4139,1 52879U 22062BB  23312.93408079  .00016651  00000-0  10616-2 0  9999,2 52879  53.2161 237.8053 0001190  65.6628 294.4488 15.08848160 77489,6917.855,95.437,540.544,538.897,0.0
52879.0,STARLINK-4139,PAYLOAD,2023-11-09 01:35:49,15.08911362,0.0001249,53.2167,237.2047,91.8802,268.2333,0.0026432,0.00042113,0.0,0 STARLINK-4139,1 52879U 22062BB  23313.06654356  .00042113  00000-0  26432-2 0  9990,2 52879  53.2167 237.2047 0001249  91.8802 268.2333 15.08911362 77991,6917.662,95.433,540.391,538.663,0.0
52879.0,STARLINK-4139,PAYLOAD,2023-11-09 22:15:50,15.08856264,0.0001446,53.2169,233.3385,121.9002,238.2131,0.00011806,1.592e-05,0.0,0 STARLINK-4139,1 52879U 22062BB  23313.92766822  .00001592  00000-0  11806-3 0  9993,2 52879  53.2169 233.3385 0001446 121.9002 238.2131 15.08856264 77634,6917.831,95.437,540.696,538.695,0.0
52879.0,STARLINK-4139,PAYLOAD,2023-11-10 01:26:36,15.08857544,0.0001517,53.2166,232.7454,125.2195,234.8939,0.0001586,2.238e-05,0.0,0 STARLINK-4139,1 52879U 22062BB  23314.06014662  .00002238  00000-0  15860-3 0  9999,2 52879  53.2166 232.7454 0001517 125.2195 234.8939 15.08857544 78147,6917.827,95.436,540.741,538.642,0.0
52879.0,STARLINK-4139,PAYLOAD,2023-11-10 06:12:45,15.0886564,0.0001151,53.2158,231.8543,111.1021,249.0094,0.00040457,6.161e-05,0.0,0 STARLINK-4139,1 52879U 22062BB  23314.25886355  .00006161  00000-0  40457-3 0  9995,2 52879  53.2158 231.8543 0001151 111.1021 249.0094 15.08865640 77687,6917.802,95.436,540.463,538.871,0.0
52879.0,STARLINK-4139,PAYLOAD,2023-11-10 22:06:37,15.08830342,0.0001592,53.2165,228.8782,123.7574,236.357,0.00054099,8.33e-05,0.0,0 STARLINK-4139,1 52879U 22062BB  23314.92126995  .00008330  00000-0  54099-3 0  9993,2 52879  53.2165 228.8782 0001592 123.7574 236.3570 15.08830342 77787,6917.91,95.438,540.876,538.674,0.0
52879.0,STARLINK-4139,PAYLOAD,2023-11-11 01:17:24,15.08847678,0.0001089,53.2168,228.2847,90.0953,270.0164,0.00035349,5.344e-05,0.0,0 STARLINK-4139,1 52879U 22062BB  23315.05375016  .00005344  00000-0  35349-3 0  9997,2 52879  53.2168 228.2847 0001089  90.0953 270.0164 15.08847678 78295,6917.857,95.437,540.475,538.969,0.0
